TIANMU-1 07             
1 57399U 23101A   26065.57454230  .00008352  00000+0  29795-3 0  9991
2 57399  97.2728 118.5929 0004609 142.4105 217.7458 15.29118809145964
STARLINK-35661          
1 66387U 25257H   26068.73164387  .00029275  00000+0  99653-3 0  9991
2 66387  53.1605 216.5656 0000982  88.2084 271.9029 15.30203999 19744
